[{"OBJECT_NAME":"STARLINK-35341","OBJECT_ID":"2025-232Y","EPOCH":"2026-03-09T12:11:41.288064","MEAN_MOTION":15.30238854,"ECCENTRICITY":0.00012331,"INCLINATION":53.159,"RA_OF_ASC_NODE":105.0333,"ARG_OF_PERICENTER":97.2152,"MEAN_ANOMALY":262.8989,"EPHEMERIS_TYPE":0,"CLASSIFICATION_TYPE":"U","NORAD_CAT_ID":66027,"ELEMENT_SET_NO":999,"REV_AT_EPOCH":2340,"BSTAR":0.00084236334,"MEAN_MOTION_DOT":0.00024702,"MEAN_MOTION_DDOT":0},{"OBJECT_NAME":"FENGYUN 1C DEB","OBJECT_ID":"1999-025CUF","EPOCH":"2026-03-09T01:34:38.628768","MEAN_MOTION":15.17132493,"ECCENTRICITY":0.01273829,"INCLINATION":98.8955,"RA_OF_ASC_NODE":293.2327,"ARG_OF_PERICENTER":89.1897,"MEAN_ANOMALY":272.3925,"EPHEMERIS_TYPE":0,"CLASSIFICATION_TYPE":"U","NORAD_CAT_ID":32185,"ELEMENT_SET_NO":999,"REV_AT_EPOCH":96318,"BSTAR":0.0036969643,"MEAN_MOTION_DOT":0.00091378,"MEAN_MOTION_DDOT":0}]
